NORAD_CAT_ID,OBJECT_NAME,OBJECT_TYPE,EPOCH,MEAN_MOTION,ECCENTRICITY,INCLINATION,RA_OF_ASC_NODE,ARG_OF_PERICENTER,MEAN_ANOMALY,BSTAR,MEAN_MOTION_DOT,MEAN_MOTION_DDOT,TLE_LINE0,TLE_LINE1,TLE_LINE2,SEMIMAJOR_AXIS,PERIOD,APOGEE,PERIGEE,DECAYED
56774.0,STARLINK-6190,PAYLOAD,2023-11-02 22:02:09,14.98330466,0.0002355,70.0021,7.1098,292.3041,67.7868,-2.4949e-05,-3.91e-06,0.0,0 STARLINK-6190,1 56774U 23078H   23306.91816250 -.00000391  00000-0 -24949-4 0  9992,2 56774  70.0021   7.1098 0002355 292.3041  67.7868 14.98330466 23700,6950.191,96.107,573.693,570.42,0.0
56774.0,STARLINK-6190,PAYLOAD,2023-11-03 04:26:41,14.98327869,0.000263,70.0008,6.4364,270.6779,89.4078,-2.5842e-06,-1.24e-06,0.0,0 STARLINK-6190,1 56774U 23078H   23307.18520106 -.00000124  00000-0 -25842-5 0  9992,2 56774  70.0008   6.4364 0002630 270.6779  89.4078 14.98327869 24007,6950.199,96.107,573.892,570.237,0.0
56774.0,STARLINK-6190,PAYLOAD,2023-11-03 14:03:29,14.98333099,0.0002649,70.0006,5.4265,268.256,91.8295,3.8493e-06,-4.7e-07,0.0,0 STARLINK-6190,1 56774U 23078H   23307.58575729 -.00000047  00000-0  38493-5 0  9996,2 56774  70.0006   5.4265 0002649 268.2560  91.8295 14.98333099 23802,6950.183,96.107,573.889,570.207,0.0
56774.0,STARLINK-6190,PAYLOAD,2023-11-04 04:28:42,14.98330054,0.0002709,70.0008,3.9115,270.1767,89.9081,-2.2681e-05,-3.64e-06,0.0,0 STARLINK-6190,1 56774U 23078H   23308.18659908 -.00000364  00000-0 -22681-4 0  9999,2 56774  70.0008   3.9115 0002709 270.1767  89.9081 14.98330054 24157,6950.193,96.107,573.941,570.175,0.0
56774.0,STARLINK-6190,PAYLOAD,2023-11-04 10:53:13,14.98340791,0.0002453,70.0009,3.239,267.5803,92.5075,-6.7389e-05,-8.97e-06,0.0,0 STARLINK-6190,1 56774U 23078H   23308.45363401 -.00000897  00000-0 -67389-4 0  9994,2 56774  70.0009   3.2390 0002453 267.5803  92.5075 14.98340791 24199,6950.16,96.106,573.729,570.32,0.0
56774.0,STARLINK-6190,PAYLOAD,2023-11-04 14:05:30,14.98343161,0.0002485,70.0008,2.9031,264.084,96.0036,-0.00023815,-2.934e-05,0.0,0 STARLINK-6190,1 56774U 23078H   23308.58715539 -.00002934  00000-0 -23815-3 0  9990,2 56774  70.0008   2.9031 0002485 264.0840  96.0036 14.98343161 23957,6950.152,96.106,573.744,570.29,0.0
56774.0,STARLINK-6190,PAYLOAD,2023-11-04 20:30:02,14.98336889,0.0002586,70.0014,2.2284,272.7719,87.3144,-0.00016204,-2.026e-05,0.0,0 STARLINK-6190,1 56774U 23078H   23308.85419798 -.00002026  00000-0 -16204-3 0  9994,2 56774  70.0014   2.2284 0002586 272.7719  87.3144 14.98336889 24256,6950.172,96.107,573.834,570.239,0.0
56774.0,STARLINK-6190,PAYLOAD,2023-11-05 12:31:23,14.983297,0.0002275,70.0013,0.5458,256.6548,103.4358,5.8507e-05,6.05e-06,0.0,0 STARLINK-6190,1 56774U 23078H   23309.52179688  .00000605  00000-0  58507-4 0  9992,2 56774  70.0013   0.5458 0002275 256.6548 103.4358 14.98329700 24098,6950.194,96.107,573.64,570.478,0.0
56774.0,STARLINK-6190,PAYLOAD,2023-11-05 20:32:02,14.98353122,0.0002425,70.0014,359.7036,272.9649,87.1233,-0.00025248,-3.106e-05,0.0,0 STARLINK-6190,1 56774U 23078H   23309.85558855 -.00003106  00000-0 -25248-3 0  9991,2 56774  70.0014 359.7036 0002425 272.9649  87.1233 14.98353122 24141,6950.121,96.106,573.672,570.301,0.0
56774.0,STARLINK-6190,PAYLOAD,2023-11-06 12:33:22,14.98341851,0.0002467,70.0009,358.0212,266.5363,93.5514,0.00017902,2.044e-05,0.0,0 STARLINK-6190,1 56774U 23078H   23310.52318172  .00002044  00000-0  17902-3 0  9999,2 56774  70.0009 358.0212 0002467 266.5363  93.5514 14.98341851 24241,6950.156,96.106,573.736,570.307,0.0
56774.0,STARLINK-6190,PAYLOAD,2023-11-06 20:34:04,14.98330465,0.0002434,70.0006,357.1784,281.8001,78.2885,-0.00019034,-2.363e-05,0.0,0 STARLINK-6190,1 56774U 23078H   23310.85699892 -.00002363  00000-0 -19034-3 0  9990,2 56774  70.0006 357.1784 0002434 281.8001  78.2885 14.98330465 24290,6950.191,96.107,573.748,570.365,0.0
56774.0,STARLINK-6190,PAYLOAD,2023-11-07 02:58:37,14.98319423,0.0001607,70.0007,356.5061,292.7998,67.2991,-0.00011501,-1.464e-05,0.0,0 STARLINK-6190,1 56774U 23078H   23311.12404924 -.00001464  00000-0 -11501-3 0  9993,2 56774  70.0007 356.5061 0001607 292.7998  67.2991 14.98319423 24599,6950.226,96.108,573.208,570.974,0.0
56774.0,STARLINK-6190,PAYLOAD,2023-11-07 10:59:20,14.98298097,0.0002658,69.9998,355.6629,272.5074,87.5781,-0.00035769,-4.355e-05,0.0,0 STARLINK-6190,1 56774U 23078H   23311.45787161 -.00004355  00000-0 -35769-3 0  9990,2 56774  69.9998 355.6629 0002658 272.5074  87.5781 14.98298097 24644,6950.292,96.109,574.004,570.309,0.0
56774.0,STARLINK-6190,PAYLOAD,2023-11-07 12:35:28,14.98297525,0.0002794,70.0,355.4958,277.1556,82.9285,-0.00034664,-4.223e-05,0.0,0 STARLINK-6190,1 56774U 23078H   23311.52463288 -.00004223  00000-0 -34664-3 0  9996,2 56774  70.0000 355.4958 0002794 277.1556  82.9285 14.98297525 24396,6950.293,96.109,574.1,570.216,0.0
56774.0,STARLINK-6190,PAYLOAD,2023-11-08 03:00:38,14.98330888,0.0002847,70.0002,353.9794,277.1315,82.952,1.0439e-05,3.2e-07,0.0,0 STARLINK-6190,1 56774U 23078H   23312.12544744  .00000032  00000-0  10439-4 0  9997,2 56774  70.0002 353.9794 0002847 277.1315  82.9520 14.98330888 24742,6950.19,96.107,574.034,570.076,0.0
56774.0,STARLINK-6190,PAYLOAD,2023-11-08 11:01:18,14.9834046,0.0002652,69.9998,353.1379,273.1175,86.9681,2.0546e-05,1.52e-06,0.0,0 STARLINK-6190,1 56774U 23078H   23312.45924085  .00000152  00000-0  20546-4 0  9996,2 56774  69.9998 353.1379 0002652 273.1175  86.9681 14.98340460 24792,6950.161,96.106,573.869,570.182,0.0
56774.0,STARLINK-6190,PAYLOAD,2023-11-08 12:37:26,14.98341233,0.0002659,70.0,352.97,272.6108,87.4746,3.5276e-05,3.28e-06,0.0,0 STARLINK-6190,1 56774U 23078H   23312.52599957  .00000328  00000-0  35276-4 0  9991,2 56774  70.0000 352.9700 0002659 272.6108  87.4746 14.98341233 24541,6950.158,96.106,573.871,570.175,0.0
56774.0,STARLINK-6190,PAYLOAD,2023-11-08 20:38:06,14.9833842,0.0002229,70.0011,352.1319,291.6691,68.4231,0.0001318,1.48e-05,0.0,0 STARLINK-6190,1 56774U 23078H   23312.85980052  .00001480  00000-0  13180-3 0  9996,2 56774  70.0011 352.1319 0002229 291.6691  68.4231 14.98338420 24599,6950.167,96.106,573.581,570.483,0.0
56774.0,STARLINK-6190,PAYLOAD,2023-11-09 03:02:39,14.98312306,0.00032,70.0013,351.4588,286.5652,73.5155,0.00040101,4.693e-05,0.0,0 STARLINK-6190,1 56774U 23078H   23313.12684669  .00004693  00000-0  40101-3 0  9994,2 56774  70.0013 351.4588 0003200 286.5652  73.5155 14.98312306 24891,6950.248,96.108,574.337,569.889,0.0
56774.0,STARLINK-6190,PAYLOAD,2023-11-09 11:03:19,14.98325492,0.0002566,70.0012,350.6174,278.6513,81.4355,0.00047875,5.623e-05,0.0,0 STARLINK-6190,1 56774U 23078H   23313.46063800  .00005623  00000-0  47875-3 0  9998,2 56774  70.0012 350.6174 0002566 278.6513  81.4355 14.98325492 24940,6950.207,96.107,573.855,570.288,0.0
56774.0,STARLINK-6190,PAYLOAD,2023-11-09 12:39:27,14.98326324,0.0002619,70.0009,350.4484,279.1265,80.9598,0.00046718,5.485e-05,0.0,0 STARLINK-6190,1 56774U 23078H   23313.52739772  .00005485  00000-0  46718-3 0  9994,2 56774  70.0009 350.4484 0002619 279.1265  80.9598 14.98326324 24697,6950.204,96.107,573.89,570.249,0.0
56774.0,STARLINK-6190,PAYLOAD,2023-11-10 03:04:40,14.98317148,0.0002245,70.0031,348.9351,283.1735,76.9173,0.00037958,4.437e-05,0.0,0 STARLINK-6190,1 56774U 23078H   23314.12824653  .00004437  00000-0  37958-3 0  9996,2 56774  70.0031 348.9351 0002245 283.1735  76.9173 14.98317148 25047,6950.233,96.108,573.658,570.537,0.0
56774.0,STARLINK-6190,PAYLOAD,2023-11-10 12:41:28,14.98335439,0.0002663,69.9997,347.9199,276.4816,83.604,-7.6096e-05,-1.001e-05,0.0,0 STARLINK-6190,1 56774U 23078H   23314.52880456 -.00001001  00000-0 -76096-4 0  9996,2 56774  69.9997 347.9199 0002663 276.4816  83.6040 14.98335439 24841,6950.176,96.107,573.892,570.19,0.0
56774.0,STARLINK-6190,PAYLOAD,2023-11-10 19:06:01,14.98325179,0.0002665,69.9999,347.2469,285.253,74.8334,8.5525e-05,9.28e-06,0.0,0 STARLINK-6190,1 56774U 23078H   23314.79584734  .00000928  00000-0  85525-4 0  9997,2 56774  69.9999 347.2469 0002665 285.2530  74.8334 14.98325179 24881,6950.208,96.107,573.925,570.221,0.0
56774.0,STARLINK-6190,PAYLOAD,2023-11-11 03:06:41,14.98322399,0.0002347,69.9994,346.4049,279.3812,80.7082,0.00015529,1.76e-05,0.0,0 STARLINK-6190,1 56774U 23078H   23315.12964493  .00001760  00000-0  15529-3 0  9990,2 56774  69.9994 346.4049 0002347 279.3812  80.7082 14.98322399 25197,6950.216,96.107,573.713,570.45,0.0
56774.0,STARLINK-6190,PAYLOAD,2023-11-11 11:07:20,14.98339554,0.000267,69.9995,345.5631,279.052,81.0337,-8.1392e-05,-1.064e-05,0.0,0 STARLINK-6190,1 56774U 23078H   23315.46343732 -.00001064  00000-0 -81392-4 0  9995,2 56774  69.9995 345.5631 0002670 279.0520  81.0337 14.98339554 25241,6950.163,96.106,573.884,570.173,0.0
56774.0,STARLINK-6190,PAYLOAD,2023-11-11 12:43:29,14.98339235,0.0002634,69.9997,345.3952,279.1174,80.9686,-7.6289e-05,-1.003e-05,0.0,0 STARLINK-6190,1 56774U 23078H   23315.53019716 -.00001003  00000-0 -76289-4 0  9997,2 56774  69.9997 345.3952 0002634 279.1174  80.9686 14.98339235 24995,6950.164,96.106,573.86,570.199,0.0
56774.0,STARLINK-6190,PAYLOAD,2023-11-11 19:08:01,14.98339405,0.0002545,69.9999,344.722,279.5825,80.5047,-0.00011563,-1.473e-05,0.0,0 STARLINK-6190,1 56774U 23078H   23315.79723612 -.00001473  00000-0 -11563-3 0  9996,2 56774  69.9999 344.7220 0002545 279.5825  80.5047 14.98339405 25038,6950.164,96.106,573.798,570.26,0.0
56774.0,STARLINK-6190,PAYLOAD,2023-11-12 11:09:22,14.98328825,0.0002308,70.0005,343.0391,276.5006,83.589,6.6804e-05,7.04e-06,0.0,0 STARLINK-6190,1 56774U 23078H   23316.46483802  .00000704  00000-0  66804-4 0  9998,2 56774  70.0005 343.0391 0002308 276.5006  83.5890 14.98328825 25397,6950.197,96.107,573.666,570.457,0.0
56774.0,STARLINK-6190,PAYLOAD,2023-11-12 19:10:01,14.98362525,0.0002644,70.001,342.1973,280.3797,79.7064,-0.00048591,-5.891e-05,0.0,0 STARLINK-6190,1 56774U 23078H   23316.79862737 -.00005891  00000-0 -48591-3 0  9998,2 56774  70.0010 342.1973 0002644 280.3797  79.7064 14.98362525 25443,6950.092,96.105,573.795,570.12,0.0
